start=new Date('2022-07-23T00:00:00.000Z').valueOf();
sats=[{"LAUNCH_DATE":"2021-02-04","OBJECT_NAME":"STARLINK-1999","DECAY_DATE":null,"OBJECT_ID":"2021-009AY","RA_OF_ASC_NODE":"235.1049","EPOCH":"2022-07-22T12:06:24.302016","REV_AT_EPOCH":"8062","MEAN_ELEMENT_THEORY":"SGP4","CLASSIFICATION_TYPE":"U","ELEMENT_SET_NO":"999","ECCENTRICITY":"0.00016230","GP_ID":"208670467","APOAPSIS":"548.299","FILE":"3519932","PERIAPSIS":"546.051","SITE":"AFETR","TIME_SYSTEM":"UTC","MEAN_MOTION":"15.06412502","RCS_SIZE":"LARGE","MEAN_ANOMALY":"290.1279","COUNTRY_CODE":"US","BSTAR":"0.00019837000000","MEAN_MOTION_DOT":"0.00002675","CENTER_NAME":"EARTH","EPHEMERIS_TYPE":"0","NORAD_CAT_ID":"47594","MEAN_MOTION_DDOT":"0.0000000000000","OBJECT_TYPE":"PAYLOAD","TLE_LINE1":"1 47594U 21009AY  22203.50444794  .00002675  00000-0  19837-3 0  9998","TLE_LINE2":"2 47594  53.0518 235.1049 0001623  69.9884 290.1279 15.06412502 80625","ARG_OF_PERICENTER":"69.9884","REF_FRAME":"TEME","SEMIMAJOR_AXIS":"6925.310","PERIOD":"95.591","INCLINATION":"53.0518"},{"OBJECT_TYPE":"PAYLOAD","TLE_LINE2":"2 47595  53.0515 233.6704 0001475  66.1828 293.9315 15.06410655 80670","TLE_LINE1":"1 47595U 21009AZ  22203.82143132  .00008197  00000-0  56839-3 0  9994","INCLINATION":"53.0515","PERIOD":"95.591","SEMIMAJOR_AXIS":"6925.316","ARG_OF_PERICENTER":"66.1828","REF_FRAME":"TEME","RCS_SIZE":"LARGE","MEAN_ANOMALY":"293.9315","MEAN_MOTION":"15.06410655","MEAN_MOTION_DDOT":"0.0000000000000","EPHEMERIS_TYPE":"0","NORAD_CAT_ID":"47595","CENTER_NAME":"EARTH","MEAN_MOTION_DOT":"0.00008197","COUNTRY_CODE":"US","BSTAR":"0.00056839000000","APOAPSIS":"548.202","FILE":"3519932","CLASSIFICATION_TYPE":"U","ELEMENT_SET_NO":"999","ECCENTRICITY":"0.00014750","GP_ID":"208670199","SITE":"AFETR","TIME_SYSTEM":"UTC","PERIAPSIS":"546.159","DECAY_DATE":null,"LAUNCH_DATE":"2021-02-04","OBJECT_NAME":"STARLINK-2000","MEAN_ELEMENT_THEORY":"SGP4","REV_AT_EPOCH":"8067","EPOCH":"2022-07-22T19:42:51.666048","OBJECT_ID":"2021-009AZ","RA_OF_ASC_NODE":"233.6704"},{"COUNTRY_CODE":"US","BSTAR":"0.00006126400000","MEAN_MOTION_DOT":"0.00000631","CENTER_NAME":"EARTH","EPHEMERIS_TYPE":"0","NORAD_CAT_ID":"47596","MEAN_MOTION_DDOT":"0.0000000000000","MEAN_MOTION":"15.06397598","RCS_SIZE":"LARGE","MEAN_ANOMALY":"293.2687","ARG_OF_PERICENTER":"66.8480","REF_FRAME":"TEME","SEMIMAJOR_AXIS":"6925.356","INCLINATION":"53.0537","PERIOD":"95.592","OBJECT_TYPE":"PAYLOAD","TLE_LINE2":"2 47596  53.0537 233.6569 0001699  66.8480 293.2687 15.06397598 80678","TLE_LINE1":"1 47596U 21009BA  22203.82513174  .00000631  00000-0  61264-4 0  9996","RA_OF_ASC_NODE":"233.6569","OBJECT_ID":"2021-009BA","EPOCH":"2022-07-22T19:48:11.382336","REV_AT_EPOCH":"8067","MEAN_ELEMENT_THEORY":"SGP4","LAUNCH_DATE":"2021-02-04","OBJECT_NAME":"STARLINK-2001","DECAY_DATE":null,"PERIAPSIS":"546.044","SITE":"AFETR","TIME_SYSTEM":"UTC","CLASSIFICATION_TYPE":"U","ELEMENT_SET_NO":"999","GP_ID":"208669466","ECCENTRICITY":"0.00016990","FILE":"3519932","APOAPSIS":"548.398"},{"EPOCH":"2022-07-22T19:37:35.591520","REV_AT_EPOCH":"8067","OBJECT_ID":"2021-009BB","RA_OF_ASC_NODE":"233.6930","MEAN_ELEMENT_THEORY":"SGP4","LAUNCH_DATE":"2021-02-04","OBJECT_NAME":"STARLINK-2002","DECAY_DATE":null,"PERIAPSIS":"546.237","SITE":"AFETR","TIME_SYSTEM":"UTC","ELEMENT_SET_NO":"999","CLASSIFICATION_TYPE":"U","GP_ID":"208669716","ECCENTRICITY":"0.00014480","APOAPSIS":"548.243","FILE":"3519932","MEAN_MOTION_DOT":"0.00000625","CENTER_NAME":"EARTH","COUNTRY_CODE":"US","BSTAR":"0.00006086900000","MEAN_MOTION_DDOT":"0.0000000000000","EPHEMERIS_TYPE":"0","NORAD_CAT_ID":"47597","MEAN_MOTION":"15.06391300","RCS_SIZE":"LARGE","MEAN_ANOMALY":"301.6490","ARG_OF_PERICENTER":"58.4641","REF_FRAME":"TEME","INCLINATION":"53.0536","PERIOD":"95.593","SEMIMAJOR_AXIS":"6925.375","OBJECT_TYPE":"PAYLOAD","TLE_LINE2":"2 47597  53.0536 233.6930 0001448  58.4641 301.6490 15.06391300 80679","TLE_LINE1":"1 47597U 21009BB  22203.81777305  .00000625  00000-0  60869-4 0  9997"},{"COUNTRY_CODE":"US","BSTAR":"-0.00000442580000","CENTER_NAME":"EARTH","MEAN_MOTION_DOT":"-0.00000347","EPHEMERIS_TYPE":"0","NORAD_CAT_ID":"47598","MEAN_MOTION_DDOT":"0.0000000000000","MEAN_MOTION":"15.06391900","RCS_SIZE":"LARGE","MEAN_ANOMALY":"303.3118","ARG_OF_PERICENTER":"56.8024","REF_FRAME":"TEME","SEMIMAJOR_AXIS":"6925.373","PERIOD":"95.593","INCLINATION":"53.0535","OBJECT_TYPE":"PAYLOAD","TLE_LINE1":"1 47598U 21009BC  22203.42981185 -.00000347  00000-0 -44258-5 0  9996","TLE_LINE2":"2 47598  53.0535 205.4377 0001594  56.8024 303.3118 15.06391900 81651","RA_OF_ASC_NODE":"205.4377","OBJECT_ID":"2021-009BC","REV_AT_EPOCH":"8165","EPOCH":"2022-07-22T10:18:55.743840","MEAN_ELEMENT_THEORY":"SGP4","LAUNCH_DATE":"2021-02-04","OBJECT_NAME":"STARLINK-2003","DECAY_DATE":null,"PERIAPSIS":"546.134","SITE":"AFETR","TIME_SYSTEM":"UTC","ELEMENT_SET_NO":"999","CLASSIFICATION_TYPE":"U","ECCENTRICITY":"0.00015940","GP_ID":"208646819","FILE":"3519872","APOAPSIS":"548.342"},{"RA_OF_ASC_NODE":"195.4863","OBJECT_ID":"2021-009BD","EPOCH":"2022-07-22T10:04:19.959744","REV_AT_EPOCH":"8178","MEAN_ELEMENT_THEORY":"SGP4","OBJECT_NAME":"STARLINK-2004","LAUNCH_DATE":"2021-02-04","DECAY_DATE":null,"PERIAPSIS":"545.963","TIME_SYSTEM":"UTC","SITE":"AFETR","ECCENTRICITY":"0.00018100","GP_ID":"208647316","ELEMENT_SET_NO":"999","CLASSIFICATION_TYPE":"U","APOAPSIS":"548.470","FILE":"3519872","BSTAR":"0.00002801600000","COUNTRY_CODE":"US","CENTER_NAME":"EARTH","MEAN_MOTION_DOT":"0.00000136","NORAD_CAT_ID":"47599","EPHEMERIS_TYPE":"0","MEAN_MOTION_DDOT":"0.0000000000000","MEAN_MOTION":"15.06399109","MEAN_ANOMALY":"299.9070","RCS_SIZE":"LARGE","REF_FRAME":"TEME","ARG_OF_PERICENTER":"60.2099","SEMIMAJOR_AXIS":"6925.351","INCLINATION":"53.0542","PERIOD":"95.592","TLE_LINE2":"2 47599  53.0542 195.4863 0001810  60.2099 299.9070 15.06399109 81780","TLE_LINE1":"1 47599U 21009BD  22203.41967546  .00000136  00000-0  28016-4 0  9998","OBJECT_TYPE":"PAYLOAD"},{"FILE":"3519932","APOAPSIS":"548.493","GP_ID":"208668966","ECCENTRICITY":"0.00018140","ELEMENT_SET_NO":"999","CLASSIFICATION_TYPE":"U","TIME_SYSTEM":"UTC","SITE":"AFETR","PERIAPSIS":"545.981","DECAY_DATE":null,"LAUNCH_DATE":"2021-02-04","OBJECT_NAME":"STARLINK-2005","MEAN_ELEMENT_THEORY":"SGP4","REV_AT_EPOCH":"8117","EPOCH":"2022-07-22T09:05:57.289920","RA_OF_ASC_NODE":"195.6287","OBJECT_ID":"2021-009BE","TLE_LINE2":"2 47600  53.0541 195.6287 0001814  79.5753 280.5440 15.06392417 81173","TLE_LINE1":"1 47600U 21009BE  22203.37913530  .00001365  00000-0  11057-3 0  9991","OBJECT_TYPE":"PAYLOAD","INCLINATION":"53.0541","PERIOD":"95.593","SEMIMAJOR_AXIS":"6925.372","ARG_OF_PERICENTER":"79.5753","REF_FRAME":"TEME","MEAN_ANOMALY":"280.5440","RCS_SIZE":"LARGE","MEAN_MOTION":"15.06392417","MEAN_MOTION_DDOT":"0.0000000000000","NORAD_CAT_ID":"47600","EPHEMERIS_TYPE":"0","MEAN_MOTION_DOT":"0.00001365","CENTER_NAME":"EARTH","BSTAR":"0.00011057000000","COUNTRY_CODE":"US"},{"LAUNCH_DATE":"2021-02-04","OBJECT_NAME":"STARLINK-2006","DECAY_DATE":null,"OBJECT_ID":"2021-009BF","RA_OF_ASC_NODE":"196.3659","REV_AT_EPOCH":"8114","EPOCH":"2022-07-22T05:23:01.943520","MEAN_ELEMENT_THEORY":"SGP4","ELEMENT_SET_NO":"999","CLASSIFICATION_TYPE":"U","GP_ID":"208669216","ECCENTRICITY":"0.00015440","APOAPSIS":"548.326","FILE":"3519932","PERIAPSIS":"546.187","SITE":"AFETR","TIME_SYSTEM":"UTC","MEAN_MOTION":"15.06386059","RCS_SIZE":"LARGE","MEAN_ANOMALY":"303.8816","COUNTRY_CODE":"US","BSTAR":"-0.00000903970000","CENTER_NAME":"EARTH","MEAN_MOTION_DOT":"-0.00000416","EPHEMERIS_TYPE":"0","NORAD_CAT_ID":"47601","MEAN_MOTION_DDOT":"0.0000000000000","OBJECT_TYPE":"PAYLOAD","TLE_LINE1":"1 47601U 21009BF  22203.22432805 -.00000416  00000-0 -90397-5 0  9991","TLE_LINE2":"2 47601  53.0538 196.3659 0001544  56.2320 303.8816 15.06386059 81141","REF_FRAME":"TEME","ARG_OF_PERICENTER":"56.2320","SEMIMAJOR_AXIS":"6925.391","PERIOD":"95.593","INCLINATION":"53.0538"},{"TLE_LINE1":"1 47602U 21009BG  22203.44455992 -.00000247  00000-0  23366-5 0  9991","TLE_LINE2":"2 47602  53.0538 205.3754 0001745  59.6879 300.4283 15.06388399 81036","OBJECT_TYPE":"PAYLOAD","ARG_OF_PERICENTER":"59.6879","REF_FRAME":"TEME","INCLINATION":"53.0538","PERIOD":"95.593","SEMIMAJOR_AXIS":"6925.384","MEAN_MOTION":"15.06388399","MEAN_ANOMALY":"300.4283","RCS_SIZE":"LARGE","MEAN_MOTION_DOT":"-0.00000247","CENTER_NAME":"EARTH","BSTAR":"0.00000233660000","COUNTRY_CODE":"US","MEAN_MOTION_DDOT":"0.0000000000000","NORAD_CAT_ID":"47602","EPHEMERIS_TYPE":"0","ECCENTRICITY":"0.00017450","GP_ID":"208670468","CLASSIFICATION_TYPE":"U","ELEMENT_SET_NO":"999","FILE":"3519932","APOAPSIS":"548.458","PERIAPSIS":"546.041","TIME_SYSTEM":"UTC","SITE":"AFETR","LAUNCH_DATE":"2021-02-04","OBJECT_NAME":"STARLINK-2007","DECAY_DATE":null,"REV_AT_EPOCH":"8103","EPOCH":"2022-07-22T10:40:09.977088","RA_OF_ASC_NODE":"205.3754","OBJECT_ID":"2021-009BG","MEAN_ELEMENT_THEORY":"SGP4"},{"MEAN_MOTION_DDOT":"0.0000000000000","NORAD_CAT_ID":"47603","EPHEMERIS_TYPE":"0","MEAN_MOTION_DOT":"0.00001320","CENTER_NAME":"EARTH","BSTAR":"0.00010749000000","COUNTRY_CODE":"US","MEAN_ANOMALY":"298.8444","RCS_SIZE":"LARGE","MEAN_MOTION":"15.06396586","INCLINATION":"53.0533","PERIOD":"95.592","SEMIMAJOR_AXIS":"6925.359","ARG_OF_PERICENTER":"61.2703","REF_FRAME":"TEME","TLE_LINE1":"1 47603U 21009BH  22203.78827454  .00001320  00000-0  10749-3 0  9996","TLE_LINE2":"2 47603  53.0533 233.8307 0001573  61.2703 298.8444 15.06396586 80660","OBJECT_TYPE":"PAYLOAD","MEAN_ELEMENT_THEORY":"SGP4","REV_AT_EPOCH":"8066","EPOCH":"2022-07-22T18:55:06.920256","RA_OF_ASC_NODE":"233.8307","OBJECT_ID":"2021-009BH","DECAY_DATE":null,"LAUNCH_DATE":"2021-02-04","OBJECT_NAME":"STARLINK-2008","TIME_SYSTEM":"UTC","SITE":"AFETR","PERIAPSIS":"546.135","APOAPSIS":"548.313","FILE":"3519932","GP_ID":"208670200","ECCENTRICITY":"0.00015730","CLASSIFICATION_TYPE":"U","ELEMENT_SET_NO":"999"}];
